[{"OBJECT_NAME":"PROBA-1","OBJECT_ID":"2001-049B","EPOCH":"2026-03-05T18:33:48.767040","MEAN_MOTION":15.06993335,"ECCENTRICITY":0.0056929,"INCLINATION":97.9617,"RA_OF_ASC_NODE":69.7157,"ARG_OF_PERICENTER":111.84,"MEAN_ANOMALY":248.8895,"EPHEMERIS_TYPE":0,"CLASSIFICATION_TYPE":"U","NORAD_CAT_ID":26958,"ELEMENT_SET_NO":999,"REV_AT_EPOCH":32804,"BSTAR":0.0001237,"MEAN_MOTION_DOT":1.849e-5,"MEAN_MOTION_DDOT":0},{"OBJECT_NAME":"CUTE-1 (CO-55)","OBJECT_ID":"2003-031E","EPOCH":"2026-03-05T13:25:38.831808","MEAN_MOTION":14.24262275,"ECCENTRICITY":0.001055,"INCLINATION":98.6779,"RA_OF_ASC_NODE":74.4095,"ARG_OF_PERICENTER":123.2151,"MEAN_ANOMALY":237.0041,"EPHEMERIS_TYPE":0,"CLASSIFICATION_TYPE":"U","NORAD_CAT_ID":27844,"ELEMENT_SET_NO":999,"REV_AT_EPOCH":17692,"BSTAR":0.0002266,"MEAN_MOTION_DOT":4.79e-6,"MEAN_MOTION_DDOT":0},{"OBJECT_NAME":"CUBESAT XI-IV (CO-57)","OBJECT_ID":"2003-031J","EPOCH":"2026-03-05T11:54:39.178656","MEAN_MOTION":14.23557892,"ECCENTRICITY":0.0010209,"INCLINATION":98.6809,"RA_OF_ASC_NODE":74.143,"ARG_OF_PERICENTER":139.8999,"MEAN_ANOMALY":220.2934,"EPHEMERIS_TYPE":0,"CLASSIFICATION_TYPE":"U","NORAD_CAT_ID":27848,"ELEMENT_SET_NO":999,"REV_AT_EPOCH":17662,"BSTAR":0.00019211,"MEAN_MOTION_DOT":3.94e-6,"MEAN_MOTION_DDOT":0},{"OBJECT_NAME":"APRIZESAT 4","OBJECT_ID":"2009-041D","EPOCH":"2026-03-05T16:13:17.906880","MEAN_MOTION":14.83699945,"ECCENTRICITY":0.0042227,"INCLINATION":98.1493,"RA_OF_ASC_NODE":137.9157,"ARG_OF_PERICENTER":298.0894,"MEAN_ANOMALY":61.6053,"EPHEMERIS_TYPE":0,"CLASSIFICATION_TYPE":"U","NORAD_CAT_ID":35684,"ELEMENT_SET_NO":999,"REV_AT_EPOCH":89601,"BSTAR":0.0001516,"MEAN_MOTION_DOT":1.213e-5,"MEAN_MOTION_DDOT":0},{"OBJECT_NAME":"APRIZESAT 3","OBJECT_ID":"2009-041F","EPOCH":"2026-03-05T08:43:13.479744","MEAN_MOTION":14.95881492,"ECCENTRICITY":0.0063177,"INCLINATION":98.1891,"RA_OF_ASC_NODE":212.7293,"ARG_OF_PERICENTER":50.8863,"MEAN_ANOMALY":309.795,"EPHEMERIS_TYPE":0,"CLASSIFICATION_TYPE":"U","NORAD_CAT_ID":35686,"ELEMENT_SET_NO":999,"REV_AT_EPOCH":90085,"BSTAR":0.00028156,"MEAN_MOTION_DOT":3.21e-5,"MEAN_MOTION_DDOT":0},{"OBJECT_NAME":"PROBA-2","OBJECT_ID":"2009-059B","EPOCH":"2026-03-05T17:32:35.185920","MEAN_MOTION":14.54788141,"ECCENTRICITY":0.0012172,"INCLINATION":98.2427,"RA_OF_ASC_NODE":249.5194,"ARG_OF_PERICENTER":237.4112,"MEAN_ANOMALY":122.591,"EPHEMERIS_TYPE":0,"CLASSIFICATION_TYPE":"U","NORAD_CAT_ID":36037,"ELEMENT_SET_NO":999,"REV_AT_EPOCH":86648,"BSTAR":0.00011549,"MEAN_MOTION_DOT":4.5e-6,"MEAN_MOTION_DDOT":0},{"OBJECT_NAME":"APRIZESAT 5","OBJECT_ID":"2011-044E","EPOCH":"2026-03-05T16:50:08.119968","MEAN_MOTION":14.80842909,"ECCENTRICITY":0.0052003,"INCLINATION":98.2402,"RA_OF_ASC_NODE":354.8634,"ARG_OF_PERICENTER":337.4714,"MEAN_ANOMALY":22.4214,"EPHEMERIS_TYPE":0,"CLASSIFICATION_TYPE":"U","NORAD_CAT_ID":37792,"ELEMENT_SET_NO":999,"REV_AT_EPOCH":78347,"BSTAR":0.00027887,"MEAN_MOTION_DOT":2.143e-5,"MEAN_MOTION_DDOT":0},{"OBJECT_NAME":"APRIZESAT 6","OBJECT_ID":"2011-044F","EPOCH":"2026-03-05T16:20:15.126432","MEAN_MOTION":14.76742394,"ECCENTRICITY":0.0044437,"INCLINATION":98.2422,"RA_OF_ASC_NODE":333.0505,"ARG_OF_PERICENTER":58.0056,"MEAN_ANOMALY":324.4792,"EPHEMERIS_TYPE":0,"CLASSIFICATION_TYPE":"U","NORAD_CAT_ID":37793,"ELEMENT_SET_NO":999,"REV_AT_EPOCH":78187,"BSTAR":0.00020329,"MEAN_MOTION_DOT":1.391e-5,"MEAN_MOTION_DDOT":0},{"OBJECT_NAME":"PROBA-V","OBJECT_ID":"2013-021A","EPOCH":"2026-03-05T12:26:47.257728","MEAN_MOTION":14.23572417,"ECCENTRICITY":0.0005381,"INCLINATION":98.35,"RA_OF_ASC_NODE":48.2919,"ARG_OF_PERICENTER":79.4176,"MEAN_ANOMALY":280.7609,"EPHEMERIS_TYPE":0,"CLASSIFICATION_TYPE":"U","NORAD_CAT_ID":39159,"ELEMENT_SET_NO":999,"REV_AT_EPOCH":66636,"BSTAR":7.1188e-5,"MEAN_MOTION_DOT":1.21e-6,"MEAN_MOTION_DDOT":0},{"OBJECT_NAME":"APRIZESAT 7","OBJECT_ID":"2013-066A","EPOCH":"2026-03-05T10:20:33.679968","MEAN_MOTION":14.9126703,"ECCENTRICITY":0.0035496,"INCLINATION":97.7596,"RA_OF_ASC_NODE":19.236,"ARG_OF_PERICENTER":192.8305,"MEAN_ANOMALY":167.2014,"EPHEMERIS_TYPE":0,"CLASSIFICATION_TYPE":"U","NORAD_CAT_ID":39416,"ELEMENT_SET_NO":999,"REV_AT_EPOCH":66576,"BSTAR":0.00024379,"MEAN_MOTION_DOT":2.398e-5,"MEAN_MOTION_DDOT":0},{"OBJECT_NAME":"APRIZESAT 8","OBJECT_ID":"2013-066K","EPOCH":"2026-03-05T09:59:40.795296","MEAN_MOTION":14.87409349,"ECCENTRICITY":0.0044592,"INCLINATION":97.8113,"RA_OF_ASC_NODE":13.419,"ARG_OF_PERICENTER":267.5045,"MEAN_ANOMALY":92.1065,"EPHEMERIS_TYPE":0,"CLASSIFICATION_TYPE":"U","NORAD_CAT_ID":39425,"ELEMENT_SET_NO":999,"REV_AT_EPOCH":66424,"BSTAR":0.00022124,"MEAN_MOTION_DOT":1.98e-5,"MEAN_MOTION_DDOT":0},{"OBJECT_NAME":"BUGSAT-1 (TITA)","OBJECT_ID":"2014-033E","EPOCH":"2026-03-05T17:45:50.511744","MEAN_MOTION":15.14437869,"ECCENTRICITY":0.0029028,"INCLINATION":98.0438,"RA_OF_ASC_NODE":151.3402,"ARG_OF_PERICENTER":171.5847,"MEAN_ANOMALY":188.5876,"EPHEMERIS_TYPE":0,"CLASSIFICATION_TYPE":"U","NORAD_CAT_ID":40014,"ELEMENT_SET_NO":999,"REV_AT_EPOCH":64017,"BSTAR":0.00046885,"MEAN_MOTION_DOT":8.636e-5,"MEAN_MOTION_DDOT":0},{"OBJECT_NAME":"SAUDISAT 4","OBJECT_ID":"2014-033G","EPOCH":"2026-03-05T08:51:53.571456","MEAN_MOTION":14.79380555,"ECCENTRICITY":0.004599,"INCLINATION":97.7402,"RA_OF_ASC_NODE":214.1971,"ARG_OF_PERICENTER":52.4917,"MEAN_ANOMALY":308.0462,"EPHEMERIS_TYPE":0,"CLASSIFICATION_TYPE":"U","NORAD_CAT_ID":40016,"ELEMENT_SET_NO":999,"REV_AT_EPOCH":63072,"BSTAR":0.00016533,"MEAN_MOTION_DOT":1.203e-5,"MEAN_MOTION_DDOT":0},{"OBJECT_NAME":"APRIZESAT 9","OBJECT_ID":"2014-033J","EPOCH":"2026-03-05T08:32:46.033440","MEAN_MOTION":14.74062217,"ECCENTRICITY":0.0066541,"INCLINATION":97.8873,"RA_OF_ASC_NODE":200.2034,"ARG_OF_PERICENTER":173.0343,"MEAN_ANOMALY":187.1806,"EPHEMERIS_TYPE":0,"CLASSIFICATION_TYPE":"U","NORAD_CAT_ID":40018,"ELEMENT_SET_NO":999,"REV_AT_EPOCH":62826,"BSTAR":0.00023055,"MEAN_MOTION_DOT":1.52e-5,"MEAN_MOTION_DDOT":0},{"OBJECT_NAME":"APRIZESAT 10","OBJECT_ID":"2014-033K","EPOCH":"2026-03-05T14:02:22.280640","MEAN_MOTION":14.707433,"ECCENTRICITY":0.0077805,"INCLINATION":97.9472,"RA_OF_ASC_NODE":193.9642,"ARG_OF_PERICENTER":244.1963,"MEAN_ANOMALY":115.1203,"EPHEMERIS_TYPE":0,"CLASSIFICATION_TYPE":"U","NORAD_CAT_ID":40019,"ELEMENT_SET_NO":999,"REV_AT_EPOCH":62702,"BSTAR":0.00019249,"MEAN_MOTION_DOT":1.177e-5,"MEAN_MOTION_DDOT":0},{"OBJECT_NAME":"TECHDEMOSAT-1 (TDS-1)","OBJECT_ID":"2014-037H","EPOCH":"2026-03-05T11:41:17.529216","MEAN_MOTION":15.11463261,"ECCENTRICITY":0.0004607,"INCLINATION":98.3774,"RA_OF_ASC_NODE":46.5998,"ARG_OF_PERICENTER":256.8339,"MEAN_ANOMALY":103.2374,"EPHEMERIS_TYPE":0,"CLASSIFICATION_TYPE":"U","NORAD_CAT_ID":40076,"ELEMENT_SET_NO":999,"REV_AT_EPOCH":63255,"BSTAR":0.00079065,"MEAN_MOTION_DOT":0.00013318,"MEAN_MOTION_DDOT":0},{"OBJECT_NAME":"TECHNOSAT","OBJECT_ID":"2017-042E","EPOCH":"2026-03-05T16:52:28.965792","MEAN_MOTION":15.04245491,"ECCENTRICITY":0.0019761,"INCLINATION":97.4149,"RA_OF_ASC_NODE":226.4222,"ARG_OF_PERICENTER":88.2107,"MEAN_ANOMALY":272.1382,"EPHEMERIS_TYPE":0,"CLASSIFICATION_TYPE":"U","NORAD_CAT_ID":42829,"ELEMENT_SET_NO":999,"REV_AT_EPOCH":47114,"BSTAR":0.00041584,"MEAN_MOTION_DOT":5.75e-5,"MEAN_MOTION_DDOT":0}]
