PROBA-1                 
1 26958U 01049B   26064.77348110  .00001849  00000+0  12370-3 0  9990
2 26958  97.9617  69.7157 0056929 111.8400 248.8895 15.06993335328047
CUTE-1 (CO-55)          
1 27844U 03031E   26064.55947722  .00000479  00000+0  22660-3 0  9999
2 27844  98.6779  74.4095 0010550 123.2151 237.0041 14.24262275176925
CUBESAT XI-IV (CO-57)   
1 27848U 03031J   26064.49628679  .00000394  00000+0  19211-3 0  9997
2 27848  98.6809  74.1430 0010209 139.8999 220.2934 14.23557892176620
APRIZESAT 4             
1 35684U 09041D   26064.67590170  .00001213  00000+0  15160-3 0  9995
2 35684  98.1493 137.9157 0042227 298.0894  61.6053 14.83699945896015
APRIZESAT 3             
1 35686U 09041F   26064.36335046  .00003210  00000+0  28156-3 0  9990
2 35686  98.1891 212.7293 0063177  50.8863 309.7950 14.95881492900852
PROBA-2                 
1 36037U 09059B   26064.73096280  .00000450  00000+0  11549-3 0  9996
2 36037  98.2427 249.5194 0012172 237.4112 122.5910 14.54788141866485
APRIZESAT 5             
1 37792U 11044E   26064.70148287  .00002143  00000+0  27887-3 0  9997
2 37792  98.2402 354.8634 0052003 337.4714  22.4214 14.80842909783476
APRIZESAT 6             
1 37793U 11044F   26064.68073063  .00001391  00000+0  20329-3 0  9992
2 37793  98.2422 333.0505 0044437  58.0056 324.4792 14.76742394781872
PROBA-V                 
1 39159U 13021A   26064.51860252  .00000121  00000+0  71188-4 0  9993
2 39159  98.3500  48.2919 0005381  79.4176 280.7609 14.23572417666363
APRIZESAT 7             
1 39416U 13066A   26064.43094537  .00002398  00000+0  24379-3 0  9991
2 39416  97.7596  19.2360 0035496 192.8305 167.2014 14.91267030665768
APRIZESAT 8             
1 39425U 13066K   26064.41644439  .00001980  00000+0  22124-3 0  9993
2 39425  97.8113  13.4190 0044592 267.5045  92.1065 14.87409349664249
BUGSAT-1 (TITA)         
1 40014U 14033E   26064.74016796  .00008636  00000+0  46885-3 0  9994
2 40014  98.0438 151.3402 0029028 171.5847 188.5876 15.14437869640172
SAUDISAT 4              
1 40016U 14033G   26064.36937004  .00001203  00000+0  16533-3 0  9998
2 40016  97.7402 214.1971 0045990  52.4917 308.0462 14.79380555630720
APRIZESAT 9             
1 40018U 14033J   26064.35608835  .00001520  00000+0  23055-3 0  9995
2 40018  97.8873 200.2034 0066541 173.0343 187.1806 14.74062217628260
APRIZESAT 10            
1 40019U 14033K   26064.58498010  .00001177  00000+0  19249-3 0  9991
2 40019  97.9472 193.9642 0077805 244.1963 115.1203 14.70743300627023
TECHDEMOSAT-1 (TDS-1)   
1 40076U 14037H   26064.48700844  .00013318  00000+0  79065-3 0  9990
2 40076  98.3774  46.5998 0004607 256.8339 103.2374 15.11463261632552
TECHNOSAT               
1 42829U 17042E   26064.70311303  .00005750  00000+0  41584-3 0  9996
2 42829  97.4149 226.4222 0019761  88.2107 272.1382 15.04245491471148
